0 DELTA 1 DEB
1 21497U 75052FS  13282.39872200 -.00000011  00000-0  64466-4 0  2535
2 21497 099.8606 340.1210 0058337 315.4732 172.9549 13.32568082 91101
0 DELTA 1 DEB
1 21497U 75052FS  13286.75034802  .00000016  00000-0  11979-3 0  2553
2 21497 099.8599 344.2988 0058290 304.9436 168.8832 13.32568106 91680
0 DELTA 1 DEB
1 21497U 75052FS  13288.77939228  .00000029  00000-0  14726-3 0  2561
2 21497 099.8592 346.2466 0058283 300.0226 182.7711 13.32568482 91950
0 DELTA 1 DEB
1 21497U 75052FS  13291.09374340  .00000008  00000-0  10450-3 0  2576
2 21497 099.8586 348.4682 0058279 294.4113 125.3543 13.32568997 92265
0 DELTA 1 DEB
1 21497U 75052FS  13293.11952450  .00000009  00000-0  10678-3 0  2589
2 21497 099.8583 350.4126 0058302 289.4917 123.5982 13.32569215 92532
0 DELTA 1 DEB
1 21497U 75052FS  13295.45031609  .00000005  00000-0  98016-4 0  2592
2 21497 099.8583 352.6495 0058301 283.8334 145.0654 13.32569488 92846
